{
"type": "FeatureCollection",
"name": "Kebun_Bambanng",
"crs": { "type": "name", "properties": { "name": "urn:ogc:def:crs:OGC:1.3:CRS84" } },
"features": [
{ "type": "Feature", "properties": { "fid": 1, "id": "1", "nama_area": "kebun_bambang", "luas_area": null }, "geometry": { "type": "Polygon", "coordinates": [ [ [ 100.019235133892408, 2.055600814439859 ], [ 100.01926720642787, 2.054082714427902 ], [ 100.017781178951381, 2.054104096118211 ], [ 100.017845324022318, 2.053227446815532 ], [ 100.019491714176127, 2.053184683434913 ], [ 100.020838760665612, 2.053826134144191 ], [ 100.020902905736534, 2.055023508801509 ], [ 100.01967345854375, 2.055472524298003 ], [ 100.019235133892408, 2.055600814439859 ] ] ] } }
]
}
